<?xml version="1.0" encoding="UTF-8"?>
<kml xmlns="http://www.opengis.net/kml/2.2"><Document><name>Farm survey</name><Folder><name>Plots</name><Placemark><name>North field</name><ExtendedData><Data name="crop"><value>wheat</value></Data></ExtendedData><Polygon><outerBoundaryIs><LinearRing><coordinates>77.201000,28.613000,0 77.206200,28.612700,0 77.206900,28.616600,0 77.204100,28.618100,0 77.200800,28.617000,0 77.201000,28.613000,0</coordinates></LinearRing></outerBoundaryIs></Polygon></Placemark><Placemark><name>Orchard</name><ExtendedData><Data name="crop"><value>mango</value></Data></ExtendedData><Polygon><outerBoundaryIs><LinearRing><coordinates>77.207500,28.612000,0 77.212000,28.611800,0 77.212400,28.615000,0 77.207900,28.615300,0 77.207500,28.612000,0</coordinates></LinearRing></outerBoundaryIs><innerBoundaryIs><LinearRing><coordinates>77.209200,28.613100,0 77.210100,28.613100,0 77.210100,28.613900,0 77.209200,28.613900,0 77.209200,28.613100,0</coordinates></LinearRing></innerBoundaryIs></Polygon></Placemark><Placemark><name>Disputed strip</name><Polygon><outerBoundaryIs><LinearRing><coordinates>77.2000,28.6100,0 77.2030,28.6115,0 77.2030,28.6100,0 77.2000,28.6115,0 77.2000,28.6100,0</coordinates></LinearRing></outerBoundaryIs></Polygon></Placemark></Folder><Folder><name>Infrastructure</name><Placemark><name>Farm road</name><LineString><coordinates>77.200000,28.612200,0 77.204500,28.612300,0 77.213000,28.611600,0</coordinates></LineString></Placemark><Placemark><name>Tube well</name><Point><coordinates>77.2050,28.6150,0</coordinates></Point></Placemark></Folder></Document></kml>
